{"crs":{"type":"EPSG","properties":{"code":"4326"}},"type":"FeatureCollection","features":[{"geometry":{"type":"Polygon","coordinates":[[[-82.5403,23.0517],[-82.4957,23.0937],[-82.4554,23.0961],[-82.3912,23.1478],[-82.3522,23.145],[-82.345,23.1353],[-82.3577,23.122],[-82.3448,23.1266],[-82.3343,23.1123],[-82.3374,23.1347],[-82.328,23.1303],[-82.3229,23.1427],[-82.3563,23.1516],[-82.3026,23.1715],[-82.2911,23.1637],[-82.228,23.1806],[-82.1225,23.1684],[-82.0929,23.1761],[-82.1025,23.1598],[-82.082,23.1487],[-82.0799,23.1245],[-82.0931,23.1221],[-82.0861,23.1055],[-82.1087,23.0806],[-82.1011,23.0555],[-82.15,23.075],[-82.1764,23.0576],[-82.2231,23.064],[-82.2256,23.0165],[-82.1964,22.9972],[-82.2167,22.9997],[-82.2283,22.9804],[-82.2618,22.9734],[-82.2475,22.9564],[-82.3775,22.9657],[-82.3658,22.9405],[-82.4336,22.9403],[-82.4458,22.9471],[-82.4436,22.9814],[-82.4843,22.9729],[-82.5081,23.0153],[-82.4917,23.0411],[-82.4921,23.0736],[-82.5403,23.0517]]]},"type":"Feature","properties":{"name":"La Habana"}},{"geometry":{"type":"Polygon","coordinates":[[[-81.6492,22.5711],[-81.6044,22.6225],[-81.5822,22.6952],[-81.6673,22.7366],[-81.6647,22.7709],[-81.6406,22.7781],[-81.6974,22.8389],[-81.6815,22.9227],[-81.7155,22.9715],[-81.7515,22.9729],[-81.7491,22.9943],[-81.7218,22.9952],[-81.7024,23.018],[-81.7198,23.0445],[-81.696,23.0786],[-81.6722,23.0638],[-81.6889,23.1102],[-81.6708,23.1461],[-81.6057,23.1535],[-81.5441,23.1309],[-81.5238,23.0843],[-81.5715,23.0487],[-81.5574,23.0363],[-81.5072,23.0467],[-81.4959,23.0388],[-81.471,23.0963],[-81.4324,23.0911],[-81.3143,23.1326],[-81.2774,23.131],[-81.2837,23.1227],[-81.2664,23.1319],[-81.2801,23.1181],[-81.2513,23.1085],[-81.1739,23.0271],[-81.128,23.0191],[-81.1033,23.0313],[-81.1093,23.0376],[-81.0742,23.0886],[-81.0256,23.1025],[-81.016,23.0967],[-81.0267,23.085],[-81.0151,23.0955],[-80.9966,23.0878],[-80.9933,23.1092],[-80.9765,23.0882],[-80.9852,23.0655],[-80.9559,23.0468],[-80.8693,23.0701],[-80.85,23.0511],[-80.8619,23.0431],[-80.8409,23.0465],[-80.7945,23.0633],[-80.8294,23.0709],[-80.8323,23.0532],[-80.8653,23.069],[-80.8126,23.0758],[-80.7987,23.0706],[-80.7525,23.0947],[-80.7283,23.0812],[-80.7218,23.0913],[-80.6964,23.0778],[-80.6917,23.0857],[-80.6854,23.0752],[-80.6708,23.0781],[-80.6785,23.0954],[-80.6602,23.0778],[-80.6317,23.0921],[-80.6254,23.0839],[-80.6339,23.0828],[-80.605,23.0659],[-80.623,23.033],[-80.6087,23.011],[-80.614,22.9794],[-80.7374,22.9775],[-80.7434,22.9601],[-80.7217,22.9126],[-80.7333,22.8878],[-80.7435,22.8949],[-80.7581,22.8836],[-80.7245,22.8396],[-80.6584,22.7944],[-80.6264,22.8211],[-80.5908,22.8284],[-80.5766,22.7791],[-80.5415,22.7471],[-80.5434,22.7334],[-80.5695,22.7346],[-80.5751,22.7194],[-80.5533,22.6952],[-80.5645,22.6258],[-80.546,22.6212],[-80.5472,22.5889],[-80.524,22.5694],[-80.5167,22.5392],[-80.5376,22.5382],[-80.5779,22.4806],[-80.6183,22.4623],[-80.8412,22.4725],[-80.8993,22.4533],[-80.9331,22.4196],[-80.9077,22.4104],[-80.9179,22.3896],[-80.908,22.3772],[-80.9391,22.3573],[-80.9045,22.3513],[-80.9222,22.2845],[-80.9144,22.2527],[-80.894,22.2478],[-80.8957,22.218],[-80.8555,22.1874],[-80.8493,22.1944],[-80.8269,22.1538],[-80.7869,22.1393],[-80.7693,22.1642],[-80.7766,22.1341],[-80.7435,22.1342],[-80.7462,22.1206],[-80.7339,22.1197],[-80.7351,22.1305],[-80.7032,22.1227],[-80.6944,22.1378],[-80.681,22.1256],[-80.6233,22.1224],[-80.6028,22.0994],[-80.5942,22.0464],[-80.7574,22.0581],[-80.8799,22.0376],[-80.9702,22.0441],[-81.0506,22.0675],[-81.1162,22.1084],[-81.143,22.1726],[-81.1424,22.2223],[-81.1871,22.2807],[-81.2205,22.2738],[-81.1967,22.2105],[-81.209,22.1437],[-81.1997,22.0877],[-81.2157,22.0514],[-81.2277,22.0571],[-81.201,22.095],[-81.2265,22.1113],[-81.2174,22.1118],[-81.2317,22.1362],[-81.2599,22.1386],[-81.2603,22.1231],[-81.2776,22.1217],[-81.2837,22.1052],[-81.2662,22.1019],[-81.2778,22.0918],[-81.2966,22.0888],[-81.2898,22.1029],[-81.3185,22.1112],[-81.332,22.0955],[-81.3053,22.0906],[-81.3629,22.0875],[-81.3912,22.1254],[-81.39,22.1723],[-81.4411,22.1875],[-81.4842,22.1831],[-81.4867,22.171],[-81.4881,22.1863],[-81.4757,22.1871],[-81.4944,22.201],[-81.5329,22.2025],[-81.5244,22.2008],[-81.5815,22.1736],[-81.5648,22.1885],[-81.579,22.1897],[-81.5819,22.2053],[-81.5811,22.1897],[-81.6208,22.1899],[-81.6259,22.2043],[-81.6465,22.2083],[-81.6577,22.2047],[-81.6542,22.1891],[-81.6838,22.2045],[-81.6847,22.1952],[-81.7368,22.2046],[-81.7402,22.1914],[-81.7596,22.1925],[-81.7506,22.1753],[-81.7588,22.1663],[-81.7972,22.189],[-81.8072,22.1754],[-81.8311,22.1913],[-81.8329,22.1995],[-81.8184,22.1927],[-81.832,22.2068],[-81.8514,22.2031],[-81.8541,22.2212],[-81.8383,22.2229],[-81.8523,22.226],[-81.8531,22.25],[-81.9437,22.2824],[-81.9562,22.2764],[-82.0371,22.3248],[-82.0974,22.3404],[-82.1026,22.3737],[-82.1387,22.3638],[-82.159,22.3954],[-82.1475,22.4197],[-82.1238,22.431],[-81.8955,22.437],[-81.8415,22.4275],[-81.7747,22.4409],[-81.7522,22.4578],[-81.7018,22.4551],[-81.6494,22.49],[-81.6541,22.5351],[-81.6361,22.538],[-81.648,22.5439],[-81.6492,22.5711]]]},"type":"Feature","properties":{"name":"Matanzas"}},{"geometry":{"type":"Polygon","coordinates":[[[-80.5376,22.5382],[-80.4923,22.5462],[-80.4416,22.5857],[-80.4176,22.565],[-80.4021,22.5679],[-80.4128,22.5536],[-80.3876,22.5477],[-80.3957,22.5173],[-80.3691,22.5089],[-80.3658,22.5243],[-80.3236,22.529],[-80.3156,22.568],[-80.29,22.5806],[-80.2381,22.5457],[-80.2524,22.5179],[-80.2325,22.5231],[-80.2346,22.4689],[-80.2217,22.4666],[-80.2385,22.4438],[-80.2202,22.4438],[-80.2217,22.3971],[-80.2499,22.3857],[-80.2362,22.3703],[-80.236,22.3442],[-80.2154,22.3461],[-80.1757,22.322],[-80.1429,22.3344],[-80.1593,22.3108],[-80.1342,22.2955],[-80.1372,22.2834],[-80.1081,22.2456],[-80.075,22.2413],[-80.106,22.1871],[-80.0902,22.1681],[-80.1043,22.1298],[-80.0781,22.0985],[-80.0894,22.0584],[-80.0457,22.0243],[-80.0334,22.0015],[-80.0447,21.9608],[-80.027,21.9528],[-80.0372,21.9228],[-80.0552,21.9213],[-80.0845,21.8881],[-80.1019,21.8252],[-80.1495,21.8224],[-80.2631,21.8831],[-80.262,21.8981],[-80.2876,21.8961],[-80.3475,21.9656],[-80.3382,21.9744],[-80.3526,21.9645],[-80.3773,21.9822],[-80.4083,22.0141],[-80.4083,22.031],[-80.443,22.03],[-80.46,22.0594],[-80.455,22.0722],[-80.4024,22.0706],[-80.3962,22.0519],[-80.3794,22.0585],[-80.4006,22.0709],[-80.3932,22.0871],[-80.4089,22.0755],[-80.4164,22.0872],[-80.4026,22.0979],[-80.4304,22.1105],[-80.4223,22.1239],[-80.4514,22.1179],[-80.4505,22.1382],[-80.4643,22.1329],[-80.4678,22.1456],[-80.4496,22.1578],[-80.4839,22.1653],[-80.4963,22.1861],[-80.5131,22.1736],[-80.5364,22.1826],[-80.5485,22.1601],[-80.5121,22.1353],[-80.5112,22.1204],[-80.4812,22.1101],[-80.484,22.0867],[-80.4769,22.093],[-80.4603,22.076],[-80.4695,22.0718],[-80.4604,22.0703],[-80.4615,22.0401],[-80.5214,22.0606],[-80.5942,22.0464],[-80.6028,22.0994],[-80.6233,22.1224],[-80.681,22.1256],[-80.6944,22.1378],[-80.7032,22.1227],[-80.7351,22.1305],[-80.7339,22.1197],[-80.7462,22.1206],[-80.7435,22.1342],[-80.7766,22.1341],[-80.7693,22.1642],[-80.7869,22.1393],[-80.8024,22.141],[-80.8269,22.1538],[-80.8493,22.1944],[-80.8555,22.1874],[-80.8957,22.218],[-80.894,22.2478],[-80.9144,22.2527],[-80.9222,22.2845],[-80.9045,22.3513],[-80.9391,22.3573],[-80.908,22.3772],[-80.9179,22.3896],[-80.9077,22.4104],[-80.9331,22.4196],[-80.9133,22.445],[-80.8412,22.4725],[-80.6183,22.4623],[-80.5779,22.4806],[-80.5376,22.5382]]]},"type":"Feature","properties":{"name":"Cienfuegos"}},{"geometry":{"type":"Polygon","coordinates":[[[-80.027,21.9528],[-79.9908,21.9678],[-79.9786,21.9589],[-79.9793,21.9796],[-79.9517,21.9784],[-79.9258,22.0231],[-79.8521,22.0036],[-79.8112,21.9767],[-79.7915,21.9889],[-79.7877,21.999],[-79.8111,22.0222],[-79.7912,22.0301],[-79.7891,22.0529],[-79.7542,22.0607],[-79.7483,22.0851],[-79.7491,22.1109],[-79.767,22.1265],[-79.7595,22.1409],[-79.7909,22.1632],[-79.7654,22.2119],[-79.717,22.2014],[-79.717,22.1787],[-79.6865,22.1704],[-79.6417,22.1961],[-79.614,22.1653],[-79.583,22.1704],[-79.5499,22.145],[-79.5148,22.1674],[-79.4994,22.2006],[-79.4515,22.2366],[-79.446,22.2534],[-79.3421,22.229],[-79.3509,22.2616],[-79.3129,22.288],[-79.3922,22.3217],[-79.4054,22.3781],[-79.3966,22.4053],[-79.416,22.4205],[-79.3836,22.4489],[-79.3987,22.459],[-79.3809,22.4498],[-79.3639,22.4225],[-79.2832,22.3968],[-79.2508,22.3737],[-79.237,22.3773],[-79.2409,22.3879],[-79.2127,22.3901],[-79.1587,22.3747],[-79.1362,22.3997],[-79.0783,22.3827],[-79.062,22.3658],[-79.0665,22.3855],[-79.0432,22.3849],[-79.0466,22.3938],[-79.0157,22.3909],[-79.0019,22.4015],[-78.9543,22.3868],[-78.9277,22.3928],[-78.927,22.3675],[-78.965,22.3236],[-78.9866,22.2549],[-79.0159,22.2284],[-79.0576,22.1013],[-79.0178,22.0681],[-79.0096,22.0728],[-78.9907,22.0453],[-78.9676,22.0443],[-78.9619,22.0104],[-78.9929,21.9315],[-79.0458,21.9404],[-79.0876,21.8424],[-79.0856,21.8124],[-79.1027,21.7724],[-79.1284,21.7557],[-79.0919,21.7282],[-79.0977,21.6993],[-79.1155,21.6884],[-79.1016,21.6692],[-79.0312,21.6793],[-79.0262,21.7116],[-78.9645,21.6873],[-78.9626,21.6279],[-79.0006,21.5953],[-79.0308,21.5864],[-79.0377,21.5977],[-79.0365,21.5893],[-79.0666,21.5892],[-79.107,21.567],[-79.1109,21.5768],[-79.1199,21.5605],[-79.1696,21.5478],[-79.2457,21.5474],[-79.3355,21.5841],[-79.3196,21.585],[-79.3274,21.5999],[-79.3506,21.6033],[-79.3434,21.5886],[-79.3684,21.6069],[-79.4108,21.589],[-79.4018,21.5941],[-79.4163,21.6],[-79.4259,21.5955],[-79.4168,21.5901],[-79.4554,21.5965],[-79.4334,21.6022],[-79.4917,21.6418],[-79.4802,21.6204],[-79.4958,21.6254],[-79.5039,21.637],[-79.4944,21.6372],[-79.4914,21.644],[-79.4932,21.6516],[-79.5063,21.6398],[-79.5144,21.6548],[-79.5277,21.6534],[-79.5166,21.6286],[-79.5263,21.6179],[-79.5266,21.6303],[-79.541,21.6396],[-79.5299,21.628],[-79.5423,21.6149],[-79.5525,21.646],[-79.5543,21.6355],[-79.5967,21.6387],[-79.5961,21.6562],[-79.6365,21.6859],[-79.7155,21.6763],[-79.7586,21.7043],[-79.7487,21.7167],[-79.7808,21.7079],[-79.798,21.7201],[-79.7932,21.7108],[-79.805,21.7086],[-79.8113,21.7261],[-79.8152,21.7109],[-79.8233,21.7422],[-79.8241,21.6669],[-79.8326,21.7272],[-79.8566,21.6957],[-79.8864,21.6961],[-79.8566,21.7022],[-79.8589,21.7166],[-79.8911,21.7031],[-79.8692,21.7155],[-79.871,21.7324],[-79.8966,21.7212],[-79.88,21.7363],[-79.8899,21.7496],[-79.8764,21.7479],[-79.8782,21.7349],[-79.8737,21.733],[-79.865,21.7516],[-79.9011,21.7531],[-79.909,21.7342],[-79.9244,21.7317],[-80.0121,21.7512],[-80.0115,21.7391],[-79.9726,21.7284],[-79.9874,21.7256],[-80.0224,21.7419],[-80.038,21.8059],[-80.1086,21.8166],[-80.0845,21.8881],[-80.0552,21.9213],[-80.0372,21.9228],[-80.027,21.9528]]]},"type":"Feature","properties":{"name":"Sancti Spíritus"}},{"geometry":{"type":"Polygon","coordinates":[[[-77.8303,20.721],[-77.8176,20.807],[-77.7715,20.8725],[-77.658,20.8828],[-77.6672,20.9105],[-77.6438,20.9318],[-77.6636,20.9577],[-77.6328,20.9684],[-77.615,20.9363],[-77.5711,20.9284],[-77.5771,20.9608],[-77.5171,20.9786],[-77.5337,21.008],[-77.477,20.9988],[-77.4631,21.0286],[-77.4686,21.0573],[-77.4458,21.066],[-77.4491,21.0824],[-77.4125,21.0518],[-77.424,21.0298],[-77.3603,21.0134],[-77.3572,20.998],[-77.3762,20.9963],[-77.3579,20.9666],[-77.3452,20.9996],[-77.3032,20.9848],[-77.2527,21.073],[-77.1696,21.0981],[-77.1598,21.1146],[-77.1688,21.1242],[-77.13,21.181],[-77.1355,21.2341],[-77.0786,21.3001],[-77.1393,21.3061],[-77.1338,21.3534],[-77.0989,21.3708],[-77.0988,21.4262],[-77.0207,21.3951],[-77.0314,21.4075],[-76.9899,21.4168],[-76.997,21.3957],[-76.9878,21.3971],[-76.9925,21.3905],[-76.9912,21.3795],[-76.9915,21.3906],[-76.9861,21.3965],[-76.9844,21.4152],[-76.9499,21.4567],[-76.872,21.423],[-76.84,21.4245],[-76.835,21.3894],[-76.8146,21.3928],[-76.8185,21.3665],[-76.8309,21.3479],[-76.8565,21.3588],[-76.9017,21.3463],[-76.881,21.3279],[-76.9038,21.3097],[-76.8839,21.3014],[-76.8873,21.2922],[-76.8341,21.3367],[-76.8514,21.3132],[-76.8367,21.3153],[-76.8386,21.3033],[-76.833,21.3019],[-76.8135,21.37],[-76.7947,21.3757],[-76.8133,21.3723],[-76.8031,21.3915],[-76.7788,21.3721],[-76.657,21.3559],[-76.6348,21.3152],[-76.6761,21.2896],[-76.6888,21.2956],[-76.6842,21.2884],[-76.6935,21.297],[-76.7083,21.2893],[-76.6939,21.304],[-76.7139,21.2988],[-76.7272,21.3093],[-76.7331,21.2985],[-76.724,21.3027],[-76.723,21.2899],[-76.7402,21.281],[-76.709,21.2813],[-76.6906,21.2612],[-76.682,21.2675],[-76.6792,21.2564],[-76.6433,21.2465],[-76.621,21.2531],[-76.6539,21.2603],[-76.6426,21.2737],[-76.6605,21.2789],[-76.6613,21.2929],[-76.6484,21.3019],[-76.5687,21.2814],[-76.5566,21.2633],[-76.5488,21.2897],[-76.5363,21.2752],[-76.5353,21.239],[-76.5571,21.2239],[-76.5952,21.2318],[-76.6182,21.23],[-76.5877,21.2273],[-76.6072,21.2123],[-76.5874,21.1942],[-76.5436,21.2112],[-76.5542,21.1939],[-76.5251,21.1784],[-76.4813,21.225],[-76.5329,21.25],[-76.5344,21.2644],[-76.5138,21.2802],[-76.3967,21.279],[-76.3091,21.2496],[-76.3247,21.1797],[-76.3446,21.1637],[-76.3286,21.1559],[-76.3271,21.1345],[-76.4799,21.064],[-76.48,21.0302],[-76.4965,21.0301],[-76.5211,20.9754],[-76.5753,20.9768],[-76.6262,20.9571],[-76.6812,20.9652],[-76.6999,20.9221],[-76.6868,20.8931],[-76.6903,20.8482],[-76.7295,20.8067],[-76.7134,20.7941],[-76.7298,20.7807],[-76.6919,20.7427],[-76.7662,20.7073],[-76.7698,20.6828],[-76.7844,20.6859],[-76.8017,20.745],[-76.9306,20.7432],[-76.98,20.7548],[-77.0323,20.7412],[-77.0452,20.719],[-77.0752,20.764],[-77.2269,20.7652],[-77.2149,20.7033],[-77.2249,20.6861],[-77.2572,20.6805],[-77.243,20.6686],[-77.262,20.662],[-77.2629,20.6444],[-77.2751,20.6573],[-77.2637,20.6678],[-77.2592,20.685],[-77.2773,20.6594],[-77.2943,20.6836],[-77.2871,20.6963],[-77.264,20.6912],[-77.2621,20.6965],[-77.2894,20.6981],[-77.2972,20.6827],[-77.3161,20.7064],[-77.352,20.721],[-77.4618,20.6845],[-77.472,20.6715],[-77.4853,20.6726],[-77.4782,20.6816],[-77.4891,20.6726],[-77.5072,20.688],[-77.494,20.675],[-77.5753,20.6954],[-77.6124,20.6926],[-77.615,20.6846],[-77.6092,20.6775],[-77.611,20.6728],[-77.6214,20.6928],[-77.6507,20.6882],[-77.6582,20.7],[-77.6525,20.6889],[-77.668,20.6998],[-77.6969,20.6896],[-77.7134,20.7019],[-77.7381,20.6896],[-77.7507,20.7021],[-77.7555,20.694],[-77.7738,20.7082],[-77.8004,20.7066],[-77.7967,20.7227],[-77.8039,20.7077],[-77.8303,20.721]]]},"type":"Feature","properties":{"name":"Las Tunas"}},{"geometry":{"type":"Polygon","coordinates":[[[-76.3247,21.1797],[-76.3091,21.2496],[-76.1504,21.1723],[-76.1307,21.1515],[-76.1319,21.0927],[-76.1035,21.0962],[-76.1112,21.1152],[-76.0678,21.1058],[-76.0344,21.0916],[-76.0441,21.0652],[-76.0287,21.088],[-76.0165,21.0834],[-76.0284,21.066],[-76.0026,21.0683],[-76.0087,21.0947],[-75.9868,21.0958],[-75.9622,21.0915],[-75.9605,21.0671],[-75.9457,21.0799],[-75.9631,21.0972],[-75.9282,21.0914],[-75.9364,21.1095],[-75.9172,21.1176],[-75.883,21.1127],[-75.8969,21.0793],[-75.8621,21.1025],[-75.8803,21.1161],[-75.8131,21.1359],[-75.7729,21.1231],[-75.7756,21.108],[-75.7621,21.1008],[-75.7693,21.1259],[-75.7174,21.1277],[-75.6791,21.105],[-75.6745,21.0698],[-75.6181,21.0724],[-75.5741,21.0111],[-75.5916,20.9584],[-75.6162,20.9345],[-75.6148,20.9156],[-75.6717,20.8766],[-75.6888,20.8896],[-75.673,20.8873],[-75.6612,20.8961],[-75.6884,20.9053],[-75.7007,20.9272],[-75.7019,20.918],[-75.717,20.9291],[-75.7341,20.9214],[-75.7349,20.9439],[-75.7369,20.9217],[-75.7483,20.9205],[-75.723,20.9023],[-75.7576,20.9067],[-75.7479,20.9033],[-75.7539,20.8834],[-75.7702,20.8819],[-75.7252,20.8793],[-75.7413,20.8681],[-75.7299,20.8655],[-75.7323,20.8463],[-75.7197,20.8494],[-75.7184,20.8672],[-75.6843,20.8835],[-75.6745,20.8525],[-75.677,20.8804],[-75.6729,20.8735],[-75.6074,20.8705],[-75.5781,20.8509],[-75.5732,20.8307],[-75.5545,20.8288],[-75.5541,20.7878],[-75.5801,20.7913],[-75.5992,20.8204],[-75.6017,20.81],[-75.6098,20.82],[-75.6,20.8269],[-75.6212,20.8479],[-75.6391,20.846],[-75.6245,20.8326],[-75.633,20.825],[-75.6607,20.849],[-75.6623,20.8295],[-75.6919,20.8419],[-75.6878,20.8258],[-75.7028,20.817],[-75.7053,20.8376],[-75.7451,20.8222],[-75.7412,20.8456],[-75.7493,20.8348],[-75.7729,20.8386],[-75.7622,20.8141],[-75.7755,20.7892],[-75.7677,20.7736],[-75.7828,20.7766],[-75.7769,20.7303],[-75.792,20.7291],[-75.7749,20.7288],[-75.7686,20.7044],[-75.7698,20.7136],[-75.7117,20.6891],[-75.6954,20.6964],[-75.691,20.7251],[-75.678,20.7201],[-75.6577,20.7435],[-75.6573,20.7722],[-75.6484,20.758],[-75.6329,20.7618],[-75.6365,20.7519],[-75.6228,20.7626],[-75.6256,20.7423],[-75.622,20.7672],[-75.6097,20.7622],[-75.615,20.7469],[-75.6094,20.7416],[-75.6081,20.7622],[-75.5976,20.7634],[-75.6065,20.7267],[-75.6227,20.7163],[-75.6126,20.7198],[-75.6064,20.7068],[-75.5658,20.7427],[-75.5516,20.7423],[-75.578,20.776],[-75.5363,20.7717],[-75.5199,20.7928],[-75.4756,20.735],[-75.4857,20.7235],[-75.5077,20.7285],[-75.5227,20.7461],[-75.5296,20.7331],[-75.576,20.727],[-75.5816,20.6899],[-75.5585,20.6792],[-75.5638,20.6953],[-75.5512,20.6964],[-75.5597,20.7026],[-75.55,20.7159],[-75.5406,20.6938],[-75.5,20.683],[-75.48,20.6991],[-75.4898,20.7067],[-75.4764,20.7308],[-75.4739,20.6945],[-75.4467,20.683],[-75.4425,20.7063],[-75.4658,20.7178],[-75.4548,20.7212],[-75.4699,20.7189],[-75.4727,20.7335],[-75.4353,20.7449],[-75.404,20.7365],[-75.4166,20.73],[-75.4134,20.7208],[-75.4117,20.7307],[-75.4012,20.7204],[-75.4044,20.7338],[-75.3849,20.7341],[-75.3297,20.7149],[-75.3738,20.6952],[-75.3557,20.692],[-75.3516,20.6687],[-75.3358,20.6782],[-75.3204,20.653],[-75.294,20.6543],[-75.2691,20.6789],[-75.2431,20.6666],[-75.261,20.6808],[-75.2545,20.6922],[-75.2638,20.6808],[-75.3268,20.6985],[-75.3191,20.7187],[-75.2939,20.7103],[-75.2292,20.7189],[-75.1565,20.6935],[-75.1874,20.6879],[-75.1895,20.6794],[-75.1651,20.6798],[-75.1708,20.6702],[-75.1513,20.69],[-75.1558,20.6652],[-75.1306,20.6827],[-75.1427,20.6942],[-75.1253,20.693],[-75.0996,20.6734],[-75.103,20.6589],[-75.0932,20.686],[-75.0757,20.6856],[-75.0883,20.6826],[-75.0725,20.673],[-75.0851,20.6696],[-75.0619,20.6668],[-75.0716,20.6867],[-74.9783,20.6958],[-74.9716,20.6858],[-74.9461,20.6875],[-74.9321,20.6577],[-74.8791,20.6565],[-74.8722,20.6353],[-74.8546,20.6355],[-74.8469,20.6178],[-74.8194,20.6273],[-74.7318,20.6176],[-74.7298,20.5969],[-74.7391,20.6169],[-74.7344,20.5978],[-74.7448,20.5949],[-74.7276,20.5549],[-74.7166,20.5597],[-74.7209,20.5725],[-74.7128,20.5549],[-74.7797,20.5089],[-74.7887,20.4548],[-74.7795,20.4404],[-74.8283,20.4214],[-74.8358,20.3944],[-74.9276,20.4433],[-74.9436,20.4686],[-75.0,20.4585],[-74.9758,20.4213],[-74.9789,20.401],[-75.0171,20.4137],[-74.9963,20.4271],[-75.0197,20.4171],[-75.0238,20.4297],[-75.0471,20.4263],[-75.0798,20.4667],[-75.1396,20.4779],[-75.1691,20.4562],[-75.2116,20.4691],[-75.2396,20.4227],[-75.2306,20.4067],[-75.2395,20.3801],[-75.2663,20.4084],[-75.2859,20.4011],[-75.3459,20.4409],[-75.3819,20.4178],[-75.3681,20.434],[-75.3879,20.4336],[-75.3904,20.4542],[-75.397,20.4451],[-75.4107,20.4627],[-75.4044,20.4974],[-75.3932,20.5007],[-75.3928,20.5424],[-75.4853,20.5404],[-75.5664,20.4946],[-75.6036,20.5061],[-75.6294,20.4466],[-75.6505,20.4489],[-75.6518,20.4327],[-75.7023,20.4307],[-75.7543,20.4546],[-75.85,20.4027],[-75.8927,20.4258],[-75.8939,20.458],[-75.9096,20.4519],[-75.9384,20.4672],[-75.9186,20.4916],[-75.9627,20.5016],[-76.0147,20.5505],[-76.062,20.5695],[-76.0467,20.5347],[-76.0608,20.5181],[-76.0748,20.5232],[-76.0822,20.4931],[-76.1123,20.4855],[-76.0947,20.4865],[-76.0855,20.4566],[-76.0901,20.4124],[-76.1238,20.4015],[-76.1132,20.4365],[-76.1388,20.4414],[-76.1656,20.4223],[-76.1968,20.4282],[-76.2326,20.4848],[-76.2272,20.5003],[-76.2569,20.5216],[-76.2817,20.5192],[-76.3389,20.5476],[-76.3851,20.5481],[-76.3699,20.5745],[-76.395,20.5854],[-76.4287,20.5792],[-76.5003,20.6263],[-76.5714,20.6302],[-76.5631,20.6677],[-76.5747,20.6926],[-76.6172,20.6719],[-76.624,20.6859],[-76.6672,20.6862],[-76.6817,20.7155],[-76.7103,20.7123],[-76.7096,20.7324],[-76.6919,20.7427],[-76.7298,20.7807],[-76.7134,20.7941],[-76.7295,20.8067],[-76.6903,20.8482],[-76.6868,20.8931],[-76.6999,20.9221],[-76.6812,20.9652],[-76.6262,20.9571],[-76.5753,20.9768],[-76.5211,20.9754],[-76.4965,21.0301],[-76.48,21.0302],[-76.4799,21.064],[-76.3271,21.1345],[-76.3286,21.1559],[-76.3446,21.1637],[-76.3247,21.1797]],[[-75.6156,20.7358],[-75.6284,20.7225],[-75.637,20.7224],[-75.6227,20.7198],[-75.6077,20.7389],[-75.6227,20.7225],[-75.6156,20.7358]]]},"type":"Feature","properties":{"name":"Holguín"}},{"geometry":{"type":"Polygon","coordinates":[[[-77.2244,20.6826],[-77.2269,20.7652],[-77.0752,20.764],[-77.0452,20.719],[-77.0323,20.7412],[-76.98,20.7548],[-76.9306,20.7432],[-76.8017,20.745],[-76.7844,20.6859],[-76.7698,20.6828],[-76.7662,20.7073],[-76.7096,20.7324],[-76.7103,20.7123],[-76.6817,20.7155],[-76.6672,20.6862],[-76.6439,20.6792],[-76.624,20.6859],[-76.6172,20.6719],[-76.5747,20.6926],[-76.5631,20.6677],[-76.5714,20.6302],[-76.5003,20.6263],[-76.4287,20.5792],[-76.395,20.5854],[-76.3699,20.5745],[-76.3851,20.5481],[-76.3389,20.5476],[-76.2817,20.5192],[-76.2569,20.5216],[-76.2272,20.5003],[-76.2326,20.4848],[-76.2023,20.4487],[-76.1972,20.4236],[-76.2197,20.3918],[-76.2372,20.3975],[-76.228,20.4039],[-76.2407,20.4073],[-76.2399,20.4389],[-76.2588,20.4621],[-76.2686,20.4587],[-76.2589,20.4365],[-76.2791,20.4004],[-76.2796,20.3592],[-76.3542,20.3734],[-76.3661,20.3245],[-76.3785,20.323],[-76.39,20.2407],[-76.4042,20.2276],[-76.4313,20.2293],[-76.4148,20.2092],[-76.4185,20.1882],[-76.3922,20.1593],[-76.4116,20.1356],[-76.4036,20.0904],[-76.4225,20.0866],[-76.4278,20.0976],[-76.4356,20.0722],[-76.4943,20.0455],[-76.5606,20.0549],[-76.5464,20.0271],[-76.5651,20.0179],[-76.6146,20.0326],[-76.6069,20.018],[-76.6191,20.0083],[-76.6631,20.0184],[-76.6736,20.0044],[-76.6819,20.0145],[-76.7056,20.011],[-76.7182,20.027],[-76.7517,20.0274],[-76.7689,20.0136],[-76.7759,20.0456],[-76.8049,20.05],[-76.8392,20.0269],[-76.8349,20.0124],[-76.8786,20.0048],[-76.8919,20.0193],[-76.9244,20.0077],[-76.9624,19.9525],[-77.0608,19.9381],[-77.0274,19.9119],[-77.0322,19.891],[-77.1265,19.8918],[-77.1782,19.9001],[-77.1879,19.9096],[-77.1721,19.9075],[-77.1952,19.9149],[-77.1959,19.9029],[-77.209,19.9124],[-77.2424,19.9012],[-77.3085,19.9119],[-77.3414,19.8813],[-77.3074,19.8818],[-77.3514,19.8537],[-77.417,19.8469],[-77.4418,19.8634],[-77.5055,19.8435],[-77.5915,19.851],[-77.6757,19.8251],[-77.7366,19.8415],[-77.7289,19.8495],[-77.7405,19.8773],[-77.7227,19.9054],[-77.6774,19.9356],[-77.667,19.951],[-77.6754,19.9575],[-77.6339,19.972],[-77.6567,19.9761],[-77.6017,20.0521],[-77.569,20.0667],[-77.5876,20.0815],[-77.5799,20.0939],[-77.5444,20.0817],[-77.515,20.0964],[-77.4705,20.148],[-77.3832,20.2098],[-77.2731,20.2459],[-77.2518,20.2935],[-77.2254,20.2973],[-77.2324,20.285],[-77.2204,20.2752],[-77.1834,20.2876],[-77.1575,20.3314],[-77.1064,20.3739],[-77.1051,20.4179],[-77.0881,20.4254],[-77.0781,20.4776],[-77.0905,20.4894],[-77.0871,20.4654],[-77.1215,20.5268],[-77.0968,20.5449],[-77.0315,20.5205],[-77.0111,20.5441],[-77.0616,20.5623],[-77.105,20.5562],[-77.1424,20.5665],[-77.1633,20.5437],[-77.1901,20.5557],[-77.196,20.5342],[-77.176,20.5286],[-77.2472,20.546],[-77.2386,20.5499],[-77.2462,20.5758],[-77.2315,20.5691],[-77.2219,20.5854],[-77.2447,20.5769],[-77.2374,20.5959],[-77.2051,20.6191],[-77.1974,20.6116],[-77.1882,20.6141],[-77.2057,20.6207],[-77.1978,20.6283],[-77.2066,20.6453],[-77.2214,20.6424],[-77.2407,20.6562],[-77.241,20.6748],[-77.2559,20.6789],[-77.2244,20.6826]]]},"type":"Feature","properties":{"name":"Granma"}},{"geometry":{"type":"Polygon","coordinates":[[[-77.0608,19.9381],[-76.9624,19.9525],[-76.9244,20.0077],[-76.8919,20.0193],[-76.8786,20.0048],[-76.8349,20.0124],[-76.8392,20.0269],[-76.8049,20.05],[-76.7759,20.0456],[-76.7689,20.0136],[-76.7517,20.0274],[-76.7182,20.027],[-76.7056,20.011],[-76.6819,20.0145],[-76.6736,20.0044],[-76.6631,20.0184],[-76.6191,20.0083],[-76.6069,20.018],[-76.6146,20.0326],[-76.5651,20.0179],[-76.5464,20.0271],[-76.5606,20.0549],[-76.4943,20.0455],[-76.4356,20.0722],[-76.4278,20.0976],[-76.4225,20.0866],[-76.4036,20.0904],[-76.4116,20.1356],[-76.3922,20.1593],[-76.4185,20.1882],[-76.4148,20.2092],[-76.4313,20.2293],[-76.4042,20.2276],[-76.39,20.2407],[-76.3785,20.323],[-76.3661,20.3245],[-76.3542,20.3734],[-76.2796,20.3592],[-76.2615,20.4604],[-76.2446,20.4515],[-76.2418,20.4096],[-76.228,20.4039],[-76.2372,20.3975],[-76.2197,20.3918],[-76.1968,20.4282],[-76.1656,20.4223],[-76.1495,20.4411],[-76.1132,20.4365],[-76.1238,20.4015],[-76.0901,20.4124],[-76.0855,20.4566],[-76.0947,20.4865],[-76.1123,20.4855],[-76.0822,20.4931],[-76.0748,20.5232],[-76.0608,20.5181],[-76.0467,20.5347],[-76.062,20.5695],[-76.0147,20.5505],[-75.9627,20.5016],[-75.9186,20.4916],[-75.9384,20.4672],[-75.9096,20.4519],[-75.8939,20.458],[-75.8927,20.4258],[-75.85,20.4027],[-75.7543,20.4546],[-75.7023,20.4307],[-75.6518,20.4327],[-75.6505,20.4489],[-75.6294,20.4466],[-75.6036,20.5061],[-75.5664,20.4946],[-75.4853,20.5404],[-75.3928,20.5424],[-75.3932,20.5007],[-75.4044,20.4974],[-75.4107,20.4627],[-75.397,20.4451],[-75.3904,20.4542],[-75.3879,20.4336],[-75.3681,20.434],[-75.3805,20.4037],[-75.4091,20.4004],[-75.4229,20.363],[-75.4783,20.3232],[-75.4565,20.2963],[-75.4695,20.273],[-75.461,20.251],[-75.4813,20.2335],[-75.4707,20.2097],[-75.4799,20.1811],[-75.4669,20.1792],[-75.4726,20.1666],[-75.4428,20.1276],[-75.4531,20.12],[-75.417,20.1028],[-75.4586,20.0886],[-75.4714,20.0578],[-75.494,20.0702],[-75.4934,20.0111],[-75.4821,19.9863],[-75.3865,19.9063],[-75.3816,19.887],[-75.4149,19.8857],[-75.4481,19.9022],[-75.4457,19.9163],[-75.4521,19.9031],[-75.4539,19.9154],[-75.4722,19.9197],[-75.4818,19.9089],[-75.4506,19.9023],[-75.4566,19.8912],[-75.5866,19.8925],[-75.69,19.9405],[-75.7021,19.9607],[-75.7485,19.9504],[-75.8241,19.9694],[-75.8657,19.9664],[-75.8585,19.9866],[-75.869,19.9788],[-75.8738,19.9879],[-75.8431,20.0063],[-75.842,20.0271],[-75.8732,20.0265],[-75.867,19.9967],[-75.88,20.0015],[-75.8869,19.9846],[-75.8723,19.9706],[-75.9107,19.9699],[-75.9164,19.9865],[-75.9139,19.9692],[-75.9634,19.9565],[-76.0981,19.968],[-76.142,19.99],[-76.1828,19.9832],[-76.2312,19.9967],[-76.2984,19.9885],[-76.3026,19.9751],[-76.3401,19.9747],[-76.3556,19.957],[-76.4155,19.9711],[-76.5188,19.9477],[-76.5761,19.9438],[-76.6652,19.9598],[-76.7098,19.9425],[-76.7658,19.9468],[-76.7894,19.9332],[-76.8648,19.938],[-76.9268,19.9001],[-77.0118,19.8844],[-77.0322,19.891],[-77.0274,19.9119],[-77.0608,19.9381]]]},"type":"Feature","properties":{"name":"Santiago de Cuba"}},{"geometry":{"type":"Polygon","coordinates":[[[-83.1923,21.6245],[-83.1196,21.5793],[-83.1002,21.5504],[-83.0564,21.5527],[-83.0315,21.538],[-82.9965,21.5525],[-83.0039,21.573],[-82.9753,21.5632],[-82.9593,21.5928],[-82.9386,21.6016],[-82.9561,21.5628],[-82.9487,21.5531],[-82.9363,21.5967],[-82.9174,21.5866],[-82.9164,21.5948],[-82.9488,21.6056],[-82.9625,21.6019],[-82.9694,21.6084],[-82.9776,21.6024],[-83.0046,21.6725],[-83.0247,21.6888],[-82.9959,21.6955],[-83.0308,21.6888],[-83.024,21.7098],[-83.0393,21.7068],[-83.0727,21.7618],[-83.04,21.7267],[-83.0525,21.7596],[-83.0664,21.7636],[-83.0599,21.772],[-83.0784,21.7914],[-83.079,21.7691],[-83.0909,21.7814],[-83.0669,21.8308],[-83.0525,21.8219],[-83.0645,21.8339],[-83.0564,21.8468],[-83.0046,21.8926],[-82.9644,21.9074],[-82.946,21.928],[-82.9534,21.9366],[-82.9242,21.9225],[-82.8506,21.9308],[-82.8116,21.9204],[-82.7999,21.8902],[-82.8008,21.9102],[-82.7787,21.9102],[-82.6786,21.8684],[-82.6942,21.8259],[-82.6981,21.8282],[-82.7263,21.819],[-82.7387,21.801],[-82.6948,21.8226],[-82.6762,21.8145],[-82.6786,21.7973],[-82.6552,21.7954],[-82.6243,21.7702],[-82.6248,21.7589],[-82.6051,21.7712],[-82.5809,21.7439],[-82.5883,21.7333],[-82.5782,21.7421],[-82.5746,21.7304],[-82.6017,21.7012],[-82.5884,21.7016],[-82.604,21.6879],[-82.5958,21.6923],[-82.6047,21.66],[-82.5794,21.6354],[-82.5628,21.6368],[-82.5666,21.6111],[-82.557,21.5934],[-82.5419,21.5931],[-82.5414,21.5694],[-82.6275,21.5129],[-82.839,21.4424],[-82.8955,21.4374],[-82.8864,21.4415],[-82.9216,21.4445],[-82.9311,21.4563],[-83.077,21.4693],[-83.1119,21.52],[-83.1459,21.5321],[-83.1739,21.5771],[-83.1705,21.6044],[-83.1923,21.6245]]]},"type":"Feature","properties":{"name":"Isla de la Juventud"}},{"geometry":{"type":"Polygon","coordinates":[[[-78.6497,21.528],[-78.6257,21.5353],[-78.5831,21.5763],[-78.4847,21.6214],[-78.4626,21.5988],[-78.4397,21.6663],[-78.3869,21.6715],[-78.3614,21.7335],[-78.3372,21.7277],[-78.3445,21.7825],[-78.3085,21.8137],[-78.281,21.8191],[-78.2431,21.7525],[-78.1836,21.7573],[-78.1712,21.7751],[-78.1883,21.7866],[-78.1487,21.8078],[-78.1667,21.8366],[-78.2589,21.9123],[-78.2608,21.9401],[-78.2458,21.9592],[-78.1651,21.969],[-78.1047,22.0274],[-78.0789,22.0252],[-78.0713,22.0771],[-78.0029,22.0092],[-78.0168,22.0131],[-77.9872,21.9629],[-77.9666,21.9568],[-77.9668,21.9461],[-77.9637,21.9571],[-77.9302,21.9061],[-77.9179,21.91],[-77.8947,21.8607],[-77.8642,21.8738],[-77.8556,21.9061],[-77.8719,21.9339],[-77.8523,21.95],[-77.8594,21.9654],[-77.8347,21.9702],[-77.806,21.9502],[-77.8021,21.96],[-77.8031,21.949],[-77.8131,21.9419],[-77.8555,21.9328],[-77.8575,21.918],[-77.8097,21.867],[-77.7738,21.8759],[-77.7852,21.8623],[-77.7688,21.865],[-77.7448,21.7988],[-77.6815,21.7872],[-77.6583,21.7603],[-77.6627,21.7717],[-77.6519,21.7755],[-77.6113,21.7761],[-77.5222,21.7493],[-77.4931,21.6963],[-77.4516,21.6885],[-77.4495,21.6514],[-77.4164,21.6339],[-77.3854,21.6313],[-77.4205,21.6474],[-77.4086,21.6501],[-77.335,21.6331],[-77.3526,21.6507],[-77.3548,21.6787],[-77.3959,21.688],[-77.3852,21.6889],[-77.4063,21.7034],[-77.3906,21.723],[-77.4021,21.7206],[-77.4,21.7416],[-77.3755,21.7586],[-77.3817,21.7721],[-77.3378,21.7573],[-77.3079,21.7267],[-77.2416,21.6997],[-77.2194,21.6787],[-77.2471,21.7004],[-77.2866,21.704],[-77.2775,21.7092],[-77.2944,21.7211],[-77.286,21.6949],[-77.2758,21.6912],[-77.2741,21.7017],[-77.2169,21.6735],[-77.2114,21.681],[-77.1689,21.6466],[-77.1521,21.6476],[-77.1423,21.6633],[-77.1457,21.6305],[-77.1094,21.5964],[-77.119,21.5725],[-77.1395,21.5696],[-77.1541,21.5433],[-77.1824,21.5714],[-77.2704,21.6121],[-77.2857,21.6011],[-77.289,21.6162],[-77.297,21.6124],[-77.2918,21.5936],[-77.3164,21.6139],[-77.3665,21.6144],[-77.35,21.5865],[-77.2854,21.5615],[-77.2463,21.5682],[-77.21,21.5439],[-77.2447,21.5309],[-77.2651,21.5389],[-77.2678,21.5222],[-77.2811,21.5227],[-77.2739,21.5099],[-77.2884,21.5077],[-77.2743,21.5066],[-77.2736,21.49],[-77.2923,21.4981],[-77.2716,21.4875],[-77.2556,21.4652],[-77.2639,21.4598],[-77.2515,21.4658],[-77.2465,21.454],[-77.2319,21.4711],[-77.2183,21.4691],[-77.2077,21.4578],[-77.2253,21.4458],[-77.2153,21.4464],[-77.2202,21.4372],[-77.1936,21.4601],[-77.1917,21.4483],[-77.1833,21.4536],[-77.1753,21.4761],[-77.157,21.4729],[-77.177,21.4663],[-77.1747,21.4604],[-77.155,21.462],[-77.1284,21.5636],[-77.108,21.571],[-77.1131,21.585],[-77.0923,21.6051],[-77.0689,21.595],[-77.0228,21.5343],[-76.9935,21.5205],[-76.9499,21.4603],[-76.9539,21.4481],[-76.9739,21.4457],[-76.9783,21.426],[-77.0447,21.4056],[-77.0988,21.4262],[-77.0989,21.3708],[-77.1338,21.3534],[-77.1393,21.3061],[-77.0786,21.3001],[-77.1355,21.2341],[-77.13,21.181],[-77.1688,21.1242],[-77.1608,21.1096],[-77.1801,21.0894],[-77.2527,21.073],[-77.3032,20.9848],[-77.3452,20.9996],[-77.3579,20.9666],[-77.3762,20.9963],[-77.3572,20.998],[-77.3603,21.0134],[-77.424,21.0298],[-77.4125,21.0518],[-77.4434,21.0853],[-77.4458,21.066],[-77.4686,21.0573],[-77.4631,21.0286],[-77.477,20.9988],[-77.5337,21.008],[-77.5171,20.9786],[-77.5771,20.9608],[-77.5711,20.9284],[-77.615,20.9363],[-77.6328,20.9684],[-77.6636,20.9577],[-77.6438,20.9318],[-77.6672,20.9105],[-77.658,20.8828],[-77.7715,20.8725],[-77.8176,20.807],[-77.8303,20.721],[-77.8968,20.7326],[-77.9077,20.7211],[-77.9154,20.7283],[-77.9083,20.7104],[-77.9251,20.696],[-77.9757,20.703],[-77.9705,20.7095],[-77.9792,20.7055],[-77.9765,20.7004],[-78.0387,20.7],[-78.0464,20.72],[-78.0578,20.7101],[-78.0707,20.7279],[-78.1427,20.7609],[-78.1505,20.7778],[-78.1329,20.7786],[-78.1499,20.7795],[-78.1523,20.8014],[-78.19,20.8214],[-78.2044,20.8434],[-78.2427,20.8298],[-78.2346,20.8521],[-78.2601,20.8791],[-78.2568,20.8968],[-78.3061,20.9114],[-78.2977,20.9142],[-78.3151,20.9271],[-78.3174,20.919],[-78.3354,20.9465],[-78.3822,20.9493],[-78.4032,20.9639],[-78.3879,20.9758],[-78.3984,20.9721],[-78.4047,20.9842],[-78.3948,20.9856],[-78.4266,20.9988],[-78.4209,20.9983],[-78.4175,21.0092],[-78.4285,20.9996],[-78.4309,21.0196],[-78.4373,21.0064],[-78.4726,21.0305],[-78.4684,21.0907],[-78.4831,21.1094],[-78.4681,21.1026],[-78.4848,21.1232],[-78.493,21.1035],[-78.5034,21.1229],[-78.4995,21.139],[-78.4905,21.133],[-78.4743,21.1338],[-78.4724,21.1406],[-78.4965,21.139],[-78.5017,21.179],[-78.5254,21.2036],[-78.525,21.2174],[-78.5115,21.2094],[-78.497,21.2392],[-78.5187,21.2142],[-78.5303,21.256],[-78.5245,21.2726],[-78.5144,21.2475],[-78.4979,21.244],[-78.4927,21.2558],[-78.5062,21.2694],[-78.4887,21.2936],[-78.5038,21.2804],[-78.5193,21.2934],[-78.5389,21.2864],[-78.5346,21.3064],[-78.5145,21.2948],[-78.5094,21.3043],[-78.5226,21.301],[-78.5358,21.3193],[-78.5385,21.305],[-78.5518,21.3237],[-78.5555,21.3521],[-78.5438,21.3458],[-78.5727,21.4158],[-78.5441,21.4218],[-78.5616,21.4298],[-78.5571,21.4225],[-78.573,21.4186],[-78.5755,21.4127],[-78.5871,21.431],[-78.5661,21.4309],[-78.5576,21.4349],[-78.5697,21.4324],[-78.5636,21.4571],[-78.5786,21.4611],[-78.5841,21.4344],[-78.6042,21.4741],[-78.584,21.4693],[-78.5921,21.4795],[-78.578,21.482],[-78.5882,21.4828],[-78.5972,21.4778],[-78.5993,21.491],[-78.6008,21.4769],[-78.6263,21.5071],[-78.6182,21.5032],[-78.6131,21.5077],[-78.6038,21.5051],[-78.5995,21.5088],[-78.6137,21.5091],[-78.6185,21.506],[-78.6104,21.5122],[-78.6208,21.5313],[-78.6248,21.5105],[-78.6497,21.528]]]},"type":"Feature","properties":{"name":"Camagüey"}},{"geometry":{"type":"MultiPolygon","coordinates":[[[[-78.9679,21.9972],[-78.9676,22.0443],[-78.9907,22.0453],[-79.0096,22.0728],[-79.0178,22.0681],[-79.0576,22.1013],[-79.0159,22.2284],[-78.9866,22.2549],[-78.965,22.3236],[-78.927,22.3675],[-78.9277,22.3928],[-78.8621,22.3862],[-78.8957,22.3984],[-78.8854,22.4011],[-78.8175,22.3804],[-78.7784,22.3894],[-78.7621,22.3215],[-78.7203,22.3043],[-78.7144,22.2849],[-78.7068,22.297],[-78.7206,22.3201],[-78.7049,22.3089],[-78.7121,22.33],[-78.6973,22.3528],[-78.7175,22.3638],[-78.711,22.3704],[-78.7011,22.3595],[-78.7032,22.3753],[-78.6943,22.3695],[-78.6928,22.3732],[-78.7029,22.3795],[-78.7044,22.3764],[-78.7168,22.3777],[-78.7255,22.386],[-78.6969,22.3819],[-78.6817,22.3587],[-78.6852,22.3541],[-78.658,22.3576],[-78.6274,22.3197],[-78.6337,22.3317],[-78.6084,22.3247],[-78.6121,22.3077],[-78.5443,22.2973],[-78.5124,22.2707],[-78.5093,22.2507],[-78.4998,22.2596],[-78.4673,22.2492],[-78.4486,22.2562],[-78.4266,22.2373],[-78.4162,22.253],[-78.4034,22.2308],[-78.3967,22.2453],[-78.3841,22.2102],[-78.3822,22.2269],[-78.4013,22.2529],[-78.3715,22.2211],[-78.3927,22.1991],[-78.3713,22.2075],[-78.3682,22.2262],[-78.3638,22.2082],[-78.3498,22.2098],[-78.357,22.2024],[-78.3525,22.1815],[-78.3533,22.1979],[-78.3388,22.1989],[-78.3481,22.1951],[-78.3394,22.1729],[-78.3203,22.1757],[-78.314,22.1552],[-78.3145,22.1704],[-78.3045,22.1722],[-78.3039,22.144],[-78.2689,22.1546],[-78.2265,22.1198],[-78.2207,22.1286],[-78.1679,22.1255],[-78.1455,22.0993],[-78.1255,22.1],[-78.1438,22.1156],[-78.1039,22.096],[-78.118,22.0865],[-78.0871,22.0807],[-78.072,22.0589],[-78.0789,22.0252],[-78.1047,22.0274],[-78.1651,21.969],[-78.2458,21.9592],[-78.2608,21.9401],[-78.2589,21.9123],[-78.1667,21.8366],[-78.1487,21.8078],[-78.1883,21.7866],[-78.1712,21.7751],[-78.1836,21.7573],[-78.2431,21.7525],[-78.281,21.8191],[-78.3085,21.8137],[-78.3445,21.7825],[-78.3372,21.7277],[-78.3614,21.7335],[-78.3869,21.6715],[-78.4397,21.6663],[-78.4626,21.5988],[-78.4847,21.6214],[-78.5831,21.5763],[-78.6326,21.537],[-78.6479,21.5404],[-78.6431,21.5486],[-78.6551,21.5418],[-78.6358,21.5564],[-78.6455,21.5576],[-78.6576,21.5388],[-78.6696,21.5467],[-78.6533,21.5607],[-78.6668,21.5571],[-78.6554,21.5762],[-78.681,21.5602],[-78.6932,21.5946],[-78.7516,21.6383],[-78.8483,21.6224],[-78.886,21.6084],[-78.8929,21.5923],[-79.0006,21.5953],[-78.9626,21.6279],[-78.9645,21.6873],[-79.0262,21.7116],[-79.0312,21.6793],[-79.1016,21.6692],[-79.1155,21.6884],[-79.0977,21.6993],[-79.0919,21.7282],[-79.1284,21.7557],[-79.1027,21.7724],[-79.0856,21.8124],[-79.0876,21.8424],[-79.0458,21.9404],[-78.9929,21.9315],[-78.9679,21.9972]]],[[[-78.5764,22.5225],[-78.5753,22.5167],[-78.5845,22.5202],[-78.5876,22.5283],[-78.606,22.5354],[-78.6079,22.5408],[-78.5955,22.5443],[-78.5549,22.5093],[-78.5245,22.5289],[-78.4598,22.5274],[-78.4256,22.5538],[-78.38,22.5493],[-78.3436,22.5305],[-78.3362,22.5204],[-78.3593,22.5196],[-78.2725,22.4329],[-78.3041,22.4303],[-78.3007,22.4498],[-78.2882,22.4446],[-78.3047,22.4599],[-78.309,22.4393],[-78.3604,22.4217],[-78.3695,22.4284],[-78.3505,22.4362],[-78.4071,22.4688],[-78.4099,22.4547],[-78.4457,22.4641],[-78.4537,22.4513],[-78.4715,22.4652],[-78.5103,22.4458],[-78.6321,22.4919],[-78.6146,22.5198],[-78.5899,22.5105],[-78.5977,22.5248],[-78.5576,22.5056],[-78.5764,22.5225]]]]},"type":"Feature","properties":{"name":"Ciego de Ávila"}},{"geometry":{"type":"Polygon","coordinates":[[[-80.605,23.0659],[-80.5849,23.0407],[-80.557,23.0322],[-80.5484,23.0096],[-80.5668,23.0281],[-80.566,23.0143],[-80.5306,22.9842],[-80.4851,22.985],[-80.4563,22.9569],[-80.4004,22.9365],[-80.3535,22.9458],[-80.262,22.8991],[-80.1826,22.9333],[-80.1543,22.9316],[-80.1564,22.9443],[-80.1375,22.9534],[-80.137,22.9447],[-80.1109,22.9489],[-80.1112,22.9338],[-80.0824,22.9391],[-80.077,22.9291],[-80.0724,22.9393],[-80.0605,22.9272],[-80.0404,22.9394],[-80.0481,22.9542],[-80.0296,22.9301],[-80.0071,22.9455],[-80.0127,22.9248],[-79.9976,22.9043],[-80.0076,22.9015],[-80.0263,22.8842],[-80.0003,22.9008],[-79.9742,22.8679],[-79.9314,22.8662],[-79.9055,22.84],[-79.8718,22.8387],[-79.8543,22.8213],[-79.854,22.7951],[-79.8268,22.8007],[-79.8297,22.7787],[-79.824,22.7985],[-79.801,22.7995],[-79.7925,22.7856],[-79.7838,22.7931],[-79.7206,22.7631],[-79.6967,22.7401],[-79.6895,22.7456],[-79.7023,22.7468],[-79.6862,22.7485],[-79.6736,22.7687],[-79.6665,22.7486],[-79.6641,22.7619],[-79.6476,22.7602],[-79.6112,22.6595],[-79.5843,22.6501],[-79.5217,22.547],[-79.5034,22.5415],[-79.5016,22.526],[-79.4915,22.535],[-79.4536,22.5227],[-79.415,22.4691],[-79.3836,22.4489],[-79.416,22.4205],[-79.3966,22.4053],[-79.4054,22.3781],[-79.3922,22.3217],[-79.3129,22.288],[-79.3509,22.2616],[-79.3421,22.229],[-79.446,22.2534],[-79.4515,22.2366],[-79.4994,22.2006],[-79.5148,22.1674],[-79.5499,22.145],[-79.583,22.1704],[-79.614,22.1653],[-79.6417,22.1961],[-79.6865,22.1704],[-79.717,22.1787],[-79.717,22.2014],[-79.7654,22.2119],[-79.7909,22.1632],[-79.7595,22.1409],[-79.767,22.1265],[-79.7491,22.1109],[-79.7483,22.0851],[-79.7542,22.0607],[-79.7891,22.0529],[-79.7912,22.0301],[-79.8111,22.0222],[-79.7877,21.999],[-79.7915,21.9889],[-79.8112,21.9767],[-79.8521,22.0036],[-79.9258,22.0231],[-79.9517,21.9784],[-79.9793,21.9796],[-79.9786,21.9589],[-79.9908,21.9678],[-80.027,21.9528],[-80.0447,21.9608],[-80.0334,22.0015],[-80.0894,22.0584],[-80.0781,22.0985],[-80.1043,22.1298],[-80.0902,22.1681],[-80.106,22.1871],[-80.075,22.2413],[-80.1081,22.2456],[-80.1372,22.2834],[-80.1342,22.2955],[-80.1593,22.3108],[-80.1429,22.3344],[-80.1757,22.322],[-80.2154,22.3461],[-80.236,22.3442],[-80.2362,22.3703],[-80.2485,22.3769],[-80.2217,22.3971],[-80.2202,22.4438],[-80.2385,22.4438],[-80.2217,22.4666],[-80.2346,22.4689],[-80.2325,22.5231],[-80.2524,22.5179],[-80.2381,22.5457],[-80.29,22.5806],[-80.3156,22.568],[-80.3236,22.529],[-80.3658,22.5243],[-80.3691,22.5089],[-80.3957,22.5173],[-80.3876,22.5477],[-80.4128,22.5536],[-80.4021,22.5679],[-80.4176,22.565],[-80.4416,22.5857],[-80.5167,22.5392],[-80.524,22.5694],[-80.5472,22.5889],[-80.546,22.6212],[-80.5645,22.6258],[-80.5533,22.6952],[-80.5751,22.7194],[-80.5695,22.7346],[-80.5434,22.7334],[-80.5415,22.7471],[-80.5766,22.7791],[-80.5908,22.8284],[-80.6264,22.8211],[-80.6584,22.7944],[-80.7245,22.8396],[-80.7581,22.8836],[-80.7435,22.8949],[-80.7333,22.8878],[-80.7217,22.9126],[-80.7434,22.9601],[-80.7374,22.9775],[-80.614,22.9794],[-80.6087,23.011],[-80.623,23.033],[-80.605,23.0659]]]},"type":"Feature","properties":{"name":"Villa Clara"}},{"geometry":{"type":"Polygon","coordinates":[[[-75.3819,20.4178],[-75.3459,20.4409],[-75.2859,20.4011],[-75.2663,20.4084],[-75.2395,20.3801],[-75.2306,20.4067],[-75.2396,20.4227],[-75.2116,20.4691],[-75.1691,20.4562],[-75.1396,20.4779],[-75.0798,20.4667],[-75.0471,20.4263],[-75.0238,20.4297],[-75.0197,20.4171],[-74.9963,20.4271],[-75.0171,20.4137],[-74.9789,20.401],[-74.9758,20.4213],[-75.0,20.4585],[-74.9436,20.4686],[-74.9276,20.4433],[-74.8358,20.3944],[-74.8283,20.4214],[-74.7795,20.4404],[-74.7887,20.4548],[-74.7797,20.5089],[-74.7128,20.5549],[-74.702,20.5323],[-74.6766,20.5315],[-74.6722,20.5113],[-74.6613,20.5197],[-74.6261,20.5],[-74.6324,20.4865],[-74.6004,20.4847],[-74.5713,20.4596],[-74.5742,20.4434],[-74.5597,20.4226],[-74.5377,20.4192],[-74.5317,20.3971],[-74.5412,20.3929],[-74.5093,20.3734],[-74.5067,20.3515],[-74.4827,20.3406],[-74.4693,20.352],[-74.4521,20.3474],[-74.4035,20.3127],[-74.4167,20.3042],[-74.4007,20.3102],[-74.3827,20.2979],[-74.3858,20.2855],[-74.3742,20.2964],[-74.3103,20.2944],[-74.2915,20.3098],[-74.2273,20.3176],[-74.1444,20.2518],[-74.1343,20.2005],[-74.1595,20.1699],[-74.2252,20.1364],[-74.2359,20.094],[-74.2708,20.0702],[-74.3636,20.0818],[-74.5788,20.0473],[-74.6145,20.0552],[-74.6454,20.0424],[-74.6926,20.0527],[-74.7926,20.0382],[-74.8092,20.0459],[-74.864,20.029],[-74.8544,20.019],[-74.8931,19.982],[-74.9552,19.9726],[-74.9808,19.9214],[-75.0555,19.907],[-75.0453,19.9123],[-75.0589,19.9245],[-75.0629,19.9039],[-75.1567,19.8921],[-75.1645,19.9189],[-75.1416,19.9201],[-75.1268,19.9453],[-75.1173,19.9427],[-75.1241,19.9501],[-75.0972,19.9484],[-75.1091,19.9564],[-75.0992,19.9637],[-75.1171,19.9613],[-75.1187,19.974],[-75.132,19.9551],[-75.1396,19.9712],[-75.1206,19.9946],[-75.0968,19.9943],[-75.0855,20.0207],[-75.0924,20.0557],[-75.1078,20.0596],[-75.1396,20.0245],[-75.131,20.014],[-75.155,20.0312],[-75.177,20.0204],[-75.1768,19.9995],[-75.1586,19.9951],[-75.1523,20.0052],[-75.1422,19.9835],[-75.1553,19.9836],[-75.1557,19.9681],[-75.1721,19.9716],[-75.1576,19.9592],[-75.1719,19.9558],[-75.1521,19.9404],[-75.1891,19.9308],[-75.1934,19.9142],[-75.2071,19.9319],[-75.2184,19.9244],[-75.1936,19.9071],[-75.358,19.879],[-75.3816,19.887],[-75.3865,19.9063],[-75.4821,19.9863],[-75.4934,20.0111],[-75.494,20.0702],[-75.4714,20.0578],[-75.4586,20.0886],[-75.417,20.1028],[-75.4531,20.12],[-75.4428,20.1276],[-75.4726,20.1666],[-75.4669,20.1792],[-75.4799,20.1811],[-75.4707,20.2097],[-75.4813,20.2335],[-75.461,20.251],[-75.4695,20.273],[-75.4565,20.2963],[-75.4783,20.3232],[-75.4229,20.363],[-75.4091,20.4004],[-75.3805,20.4037],[-75.3819,20.4178]]]},"type":"Feature","properties":{"name":"Guantánamo"}},{"geometry":{"type":"Polygon","coordinates":[[[-83.3734,22.8887],[-83.36,22.8705],[-83.3897,22.8314],[-83.3756,22.8072],[-83.3989,22.7784],[-83.3861,22.7649],[-83.361,22.7662],[-83.3607,22.7253],[-83.3315,22.7149],[-83.3266,22.6741],[-83.3029,22.6694],[-83.2275,22.6982],[-83.2217,22.6729],[-83.2371,22.6665],[-83.2269,22.6537],[-83.2041,22.6557],[-83.1713,22.6187],[-83.1578,22.5202],[-83.135,22.4981],[-83.0802,22.4831],[-83.127,22.4083],[-83.1438,22.3571],[-83.1735,22.3309],[-83.216,22.3327],[-83.2362,22.353],[-83.2275,22.3417],[-83.2597,22.3486],[-83.2691,22.3275],[-83.2922,22.3397],[-83.2677,22.325],[-83.2848,22.329],[-83.2926,22.3101],[-83.3059,22.3092],[-83.2929,22.3081],[-83.2875,22.3124],[-83.2855,22.2969],[-83.3203,22.2834],[-83.3215,22.2577],[-83.3488,22.2569],[-83.3396,22.244],[-83.3297,22.2568],[-83.3126,22.2476],[-83.3304,22.2365],[-83.3281,22.2531],[-83.356,22.21],[-83.3607,22.2263],[-83.3698,22.2336],[-83.3748,22.2186],[-83.3606,22.221],[-83.3751,22.2118],[-83.3584,22.2091],[-83.3747,22.1994],[-83.3898,22.2013],[-83.3766,22.2087],[-83.3989,22.2308],[-83.3926,22.2024],[-83.4072,22.2037],[-83.4208,22.1824],[-83.4454,22.1862],[-83.4431,22.2],[-83.4807,22.1695],[-83.5008,22.1925],[-83.5087,22.1815],[-83.5499,22.2001],[-83.5435,22.2149],[-83.5679,22.235],[-83.563,22.2749],[-83.572,22.2353],[-83.6565,22.1644],[-83.6741,22.1907],[-83.69,22.1829],[-83.6848,22.1714],[-83.7181,22.1768],[-83.7709,22.1628],[-83.7892,22.1666],[-83.7817,22.174],[-83.7819,22.1949],[-83.7963,22.1767],[-83.8051,22.1837],[-83.8351,22.1646],[-83.8618,22.1692],[-83.8604,22.1802],[-83.8949,22.1728],[-83.8819,22.1769],[-83.8829,22.187],[-83.98,22.1166],[-84.0066,22.156],[-83.9978,22.1299],[-83.9806,22.1157],[-83.971,22.1178],[-83.9729,22.0814],[-84.0,22.093],[-83.9756,22.0799],[-83.969,22.0823],[-83.9671,22.0527],[-83.9825,22.0751],[-83.9945,22.0385],[-83.9739,22.0167],[-83.964,22.0205],[-83.967,22.0428],[-83.9583,22.0285],[-83.9681,22.01],[-83.9977,21.979],[-83.9889,21.9563],[-84.0001,21.9277],[-84.0334,21.9034],[-84.0998,21.9272],[-84.264,21.8915],[-84.4478,21.7627],[-84.5161,21.7578],[-84.512,21.8028],[-84.4555,21.8736],[-84.4701,21.9106],[-84.5016,21.9275],[-84.5583,21.9321],[-84.6892,21.8923],[-84.7332,21.8725],[-84.8009,21.8111],[-84.9202,21.8276],[-84.9479,21.845],[-84.9548,21.8717],[-84.9283,21.9178],[-84.9013,21.8894],[-84.8569,21.8863],[-84.8464,21.8984],[-84.8371,21.8903],[-84.8255,21.9134],[-84.8048,21.9014],[-84.763,21.9178],[-84.698,21.9589],[-84.648,21.9658],[-84.5405,22.0173],[-84.5416,22.0271],[-84.5366,22.0182],[-84.5317,22.0324],[-84.5227,22.0221],[-84.5272,22.0345],[-84.5048,22.0332],[-84.5095,22.0401],[-84.4924,22.0481],[-84.4814,22.0421],[-84.4918,22.0337],[-84.4866,22.0191],[-84.4685,22.0217],[-84.4534,22.0078],[-84.3878,22.0403],[-84.3557,22.0273],[-84.3421,21.9936],[-84.319,21.9915],[-84.3007,22.0184],[-84.2769,22.0061],[-84.2655,22.074],[-84.2579,22.0716],[-84.2501,22.0765],[-84.2424,22.0713],[-84.2259,22.0809],[-84.2418,22.0724],[-84.2504,22.0788],[-84.28,22.0707],[-84.2896,22.0361],[-84.316,22.0269],[-84.3192,22.0805],[-84.3509,22.0884],[-84.3368,22.1273],[-84.3688,22.1352],[-84.3597,22.1529],[-84.3703,22.1383],[-84.3754,22.147],[-84.3721,22.1352],[-84.3851,22.1364],[-84.387,22.1538],[-84.4016,22.1392],[-84.412,22.1743],[-84.3997,22.1804],[-84.4134,22.2022],[-84.4042,22.2111],[-84.4138,22.2045],[-84.4162,22.2191],[-84.4162,22.2024],[-84.4314,22.2061],[-84.4096,22.2395],[-84.4003,22.3196],[-84.3718,22.3774],[-84.3507,22.3735],[-84.3597,22.3798],[-84.3291,22.4001],[-84.3252,22.42],[-84.2761,22.4696],[-84.2844,22.4751],[-84.2942,22.4617],[-84.2951,22.4764],[-84.2675,22.4802],[-84.2654,22.4678],[-84.2563,22.4666],[-84.2656,22.4783],[-84.225,22.4967],[-84.2174,22.5141],[-84.2067,22.5108],[-84.2092,22.5441],[-84.2022,22.5445],[-84.194,22.5607],[-84.2059,22.5473],[-84.2134,22.557],[-84.1986,22.5615],[-84.2192,22.5623],[-84.2212,22.569],[-84.1609,22.5799],[-84.1303,22.5694],[-84.1164,22.6085],[-84.0809,22.6116],[-84.0876,22.646],[-84.0765,22.6377],[-84.0497,22.6531],[-84.0368,22.6439],[-84.0296,22.6636],[-84.0141,22.6677],[-84.0288,22.6696],[-84.0145,22.6739],[-84.0133,22.6891],[-84.0009,22.6705],[-83.9731,22.6709],[-83.9711,22.6856],[-83.9676,22.672],[-83.9665,22.6864],[-83.956,22.6793],[-83.9648,22.6899],[-83.9531,22.6999],[-83.943,22.6932],[-83.9312,22.721],[-83.9094,22.7136],[-83.9044,22.7272],[-83.8889,22.7093],[-83.8803,22.7415],[-83.8613,22.7501],[-83.8083,22.7417],[-83.7576,22.7714],[-83.7012,22.7805],[-83.6893,22.8024],[-83.6891,22.7835],[-83.6764,22.798],[-83.6655,22.7964],[-83.6714,22.7845],[-83.6451,22.7856],[-83.6239,22.8007],[-83.6409,22.8136],[-83.6303,22.8241],[-83.5605,22.8183],[-83.5428,22.8584],[-83.524,22.8672],[-83.5272,22.8557],[-83.4895,22.8498],[-83.459,22.8782],[-83.4637,22.8898],[-83.4493,22.884],[-83.4412,22.9007],[-83.426,22.8983],[-83.4219,22.88],[-83.3955,22.8819],[-83.3974,22.8641],[-83.3834,22.8657],[-83.3734,22.8887]]]},"type":"Feature","properties":{"name":"Pinar del Río"}},{"geometry":{"type":"Polygon","coordinates":[[[-83.3734,22.8887],[-83.3618,22.888],[-83.3605,22.9073],[-83.3474,22.902],[-83.3369,22.9296],[-83.2938,22.9615],[-83.221,22.9946],[-83.1672,22.9767],[-83.197,22.9596],[-83.1888,22.9264],[-83.1709,22.9336],[-83.1647,22.9214],[-83.1396,22.9461],[-83.1576,22.9508],[-83.1455,22.9692],[-83.161,22.9624],[-83.1596,22.9728],[-83.1241,22.9959],[-83.0906,22.9963],[-83.0932,22.9831],[-83.0674,23.0031],[-82.9929,23.0113],[-82.9795,22.9932],[-83.002,23.0013],[-83.0159,22.9796],[-82.9991,22.9601],[-82.9906,22.9821],[-82.9736,22.9853],[-82.9923,22.9553],[-82.9686,22.9633],[-82.958,22.9819],[-82.9415,22.9744],[-82.9139,22.9892],[-82.9124,23.0016],[-82.9703,22.9906],[-82.9554,23.0174],[-82.7876,23.0278],[-82.7575,23.0227],[-82.7762,23.0133],[-82.7567,23.0108],[-82.7799,22.9932],[-82.7606,22.9769],[-82.7458,23.0042],[-82.7519,23.0249],[-82.7173,23.0157],[-82.5769,23.0505],[-82.5699,23.0312],[-82.5732,23.0504],[-82.5362,23.0618],[-82.5419,23.052],[-82.5401,23.0438],[-82.4921,23.0736],[-82.4917,23.0411],[-82.5081,23.0153],[-82.4843,22.9729],[-82.4436,22.9814],[-82.4458,22.9471],[-82.4263,22.9252],[-82.4549,22.8523],[-82.4687,22.8481],[-82.4666,22.7957],[-82.4462,22.778],[-82.4375,22.7017],[-82.4483,22.6838],[-82.5229,22.686],[-82.5548,22.6675],[-82.5702,22.6892],[-82.6342,22.6789],[-82.6947,22.6993],[-82.7585,22.7022],[-82.7797,22.6869],[-82.7705,22.6635],[-82.8156,22.6003],[-82.8681,22.5834],[-82.912,22.5465],[-82.9281,22.5575],[-82.9235,22.5465],[-82.9524,22.5461],[-82.9543,22.5638],[-82.9578,22.5325],[-82.9838,22.5169],[-83.0647,22.4902],[-83.1158,22.4904],[-83.1578,22.5202],[-83.1713,22.6187],[-83.1849,22.641],[-83.2371,22.6665],[-83.2217,22.6729],[-83.2275,22.6982],[-83.3029,22.6694],[-83.3266,22.6741],[-83.3315,22.7149],[-83.3607,22.7253],[-83.361,22.7662],[-83.3936,22.7696],[-83.3989,22.7784],[-83.3749,22.8144],[-83.3897,22.8314],[-83.36,22.8705],[-83.3734,22.8887]]]},"type":"Feature","properties":{"name":"Artemisa"}},{"geometry":{"type":"Polygon","coordinates":[[[-82.4336,22.9403],[-82.3658,22.9405],[-82.3775,22.9657],[-82.2475,22.9564],[-82.2618,22.9734],[-82.2283,22.9804],[-82.2167,22.9997],[-82.1964,22.9972],[-82.2256,23.0165],[-82.2231,23.064],[-82.1764,23.0576],[-82.15,23.075],[-82.1011,23.0555],[-82.1087,23.0806],[-82.0861,23.1055],[-82.0931,23.1221],[-82.0799,23.1245],[-82.082,23.1487],[-82.1016,23.1666],[-82.0721,23.1828],[-82.0237,23.1871],[-82.0063,23.1747],[-81.9977,23.1833],[-81.9797,23.1669],[-81.8737,23.1548],[-81.8593,23.1438],[-81.6869,23.1501],[-81.6749,23.1422],[-81.6889,23.1102],[-81.6722,23.0638],[-81.696,23.0786],[-81.7198,23.0445],[-81.7024,23.018],[-81.7218,22.9952],[-81.7491,22.9943],[-81.7515,22.9729],[-81.7155,22.9715],[-81.6815,22.9227],[-81.6974,22.8389],[-81.6406,22.7781],[-81.6647,22.7709],[-81.6673,22.7366],[-81.5822,22.6952],[-81.6044,22.6225],[-81.6492,22.5711],[-81.6767,22.5787],[-81.7585,22.6401],[-81.8713,22.6785],[-82.1013,22.6542],[-82.198,22.6849],[-82.2816,22.6858],[-82.291,22.6762],[-82.3023,22.6971],[-82.2999,22.681],[-82.4483,22.6838],[-82.4347,22.7296],[-82.4514,22.7532],[-82.4462,22.778],[-82.4666,22.7957],[-82.4687,22.8481],[-82.4549,22.8523],[-82.4263,22.9252],[-82.4336,22.9403]]]},"type":"Feature","properties":{"name":"Mayabeque"}}]}